[
    {
        "Altitude(m)": 611965.1884611862,
        "Argument of Periapsis(deg)": 0.0,
        "Eccentricity": 0.0,
        "Inclination(deg)": 60.0,
        "Latitude(deg)": 59.14017097701181,
        "Longitude(deg)": -151.0300340095025,
        "Mean Anomaly(deg)": 81.8182,
        "RAAN(deg)": 235.0,
        "Satellite Name": "Test1 1039",
        "Satellite Number": 1039,
        "Semi-Major Axis(m)": 6980739.136638005,
        "Time(s)": 0
    },
    {
        "Altitude(m)": 611995.8133795105,
        "Argument of Periapsis(deg)": 0.00010418945913296404,
        "Eccentricity": 0.0,
        "Inclination(deg)": 60.0,
        "Latitude(deg)": 59.28326920469552,
        "Longitude(deg)": -149.89667070381478,
        "Mean Anomaly(deg)": 82.43830614546181,
        "RAAN(deg)": 234.99957995086027,
        "Satellite Name": "Test1 1039",
        "Satellite Number": 1039,
        "Semi-Major Axis(m)": 6980739.136638005,
        "Time(s)": 10
    }
]